CZ-2F DEB               
1 67718U 26024E   26049.16587150  .00220492  00000+0  43918-2 0  9992
2 67718  50.3133 114.0698 0259695 203.2459 155.6579 15.17012857  1664
CZ-2F DEB               
1 67719U 26024F   26049.17043965  .00164962  00000+0  42170-2 0  9993
2 67719  49.7903 115.4267 0332898 193.2655 165.9369 14.97531525  1310
CZ-2F DEB               
1 67720U 26024G   26049.19009266  .00170416  00000+0  44682-2 0  9994
2 67720  49.8301 115.5489 0343590 189.9087 169.4959 14.94872999  1633
2026-027A               
1 67746U 26027A   26049.18521344  .00008134  00000+0  41085-3 0  9992
2 67746  97.4881 178.4131 0009230 267.4015  92.6162 15.17311223   904
2026-027B               
1 67747U 26027B   26049.18481876  .00008183  00000+0  41209-3 0  9990
2 67747  97.4875 178.4131 0009391 270.0419  89.9739 15.17412716   902
2026-027C               
1 67748U 26027C   26049.18427779  .00005822  00000+0  29322-3 0  9992
2 67748  97.4888 178.4149 0009787 273.2129  86.7984 15.17535622   907
2026-027D               
1 67749U 26027D   26049.18369973  .00009459  00000+0  47170-3 0  9995
2 67749  97.4883 178.4153 0009641 277.5808  82.4331 15.17707726   857
2026-027E               
1 67750U 26027E   26049.18364635  .00008248  00000+0  41180-3 0  9997
2 67750  97.4893 178.4164 0008771 279.5071  80.5171 15.17715912   902
2026-027F               
1 67751U 26027F   26049.18342619  .00013177  00000+0  65361-3 0  9990
2 67751  97.4894 178.4170 0009928 278.2086  81.8021 15.17805528   909
2026-027G               
1 67752U 26027G   26049.18332250  .00008802  00000+0  43811-3 0  9996
2 67752  97.4888 178.4164 0009104 281.5030  78.5182 15.17802638   908
2026-027H               
1 67753U 26027H   26049.16055536  .00351189  23088-5  66673-3 0  9991
2 67753  97.5142 178.8042 0267543 317.7265  40.3637 15.59779256   926
2026-027J               
1 67754U 26027J   26049.15145839  .00743392  23459-5  13117-2 0  9994
2 67754  97.5117 178.8175 0248916 317.2569  40.9562 15.64680053   869
