CCSDS_OMM_VERS = 2.0
CREATION_DATE  = 
ORIGINATOR     = 

OBJECT_NAME    = CZ-2F DEB
OBJECT_ID      = 2026-024E
CENTER_NAME    = EARTH
REF_FRAME      = TEME
TIME_SYSTEM    = UTC
MEAN_ELEMENT_THEORY = SGP/SGP4

EPOCH          = 2026-02-18T03:58:51.297600
MEAN_MOTION    = 15.17012857
ECCENTRICITY   = .0259695
INCLINATION    = 50.3133
RA_OF_ASC_NODE = 114.0698
ARG_OF_PERICENTER = 203.2459
MEAN_ANOMALY   = 155.6579

EPHEMERIS_TYPE = 0
CLASSIFICATION_TYPE = U
NORAD_CAT_ID   = 67718
ELEMENT_SET_NO = 999
REV_AT_EPOCH   = 166
BSTAR          = .43918E-2
MEAN_MOTION_DOT = .220492E-2
MEAN_MOTION_DDOT = 0

CCSDS_OMM_VERS = 2.0
CREATION_DATE  = 
ORIGINATOR     = 

OBJECT_NAME    = CZ-2F DEB
OBJECT_ID      = 2026-024F
CENTER_NAME    = EARTH
REF_FRAME      = TEME
TIME_SYSTEM    = UTC
MEAN_ELEMENT_THEORY = SGP/SGP4

EPOCH          = 2026-02-18T04:05:25.985760
MEAN_MOTION    = 14.97531525
ECCENTRICITY   = .0332898
INCLINATION    = 49.7903
RA_OF_ASC_NODE = 115.4267
ARG_OF_PERICENTER = 193.2655
MEAN_ANOMALY   = 165.9369

EPHEMERIS_TYPE = 0
CLASSIFICATION_TYPE = U
NORAD_CAT_ID   = 67719
ELEMENT_SET_NO = 999
REV_AT_EPOCH   = 131
BSTAR          = .4217E-2
MEAN_MOTION_DOT = .164962E-2
MEAN_MOTION_DDOT = 0

CCSDS_OMM_VERS = 2.0
CREATION_DATE  = 
ORIGINATOR     = 

OBJECT_NAME    = CZ-2F DEB
OBJECT_ID      = 2026-024G
CENTER_NAME    = EARTH
REF_FRAME      = TEME
TIME_SYSTEM    = UTC
MEAN_ELEMENT_THEORY = SGP/SGP4

EPOCH          = 2026-02-18T04:33:44.005824
MEAN_MOTION    = 14.94872999
ECCENTRICITY   = .034359
INCLINATION    = 49.8301
RA_OF_ASC_NODE = 115.5489
ARG_OF_PERICENTER = 189.9087
MEAN_ANOMALY   = 169.4959

EPHEMERIS_TYPE = 0
CLASSIFICATION_TYPE = U
NORAD_CAT_ID   = 67720
ELEMENT_SET_NO = 999
REV_AT_EPOCH   = 163
BSTAR          = .44682E-2
MEAN_MOTION_DOT = .170416E-2
MEAN_MOTION_DDOT = 0

CCSDS_OMM_VERS = 2.0
CREATION_DATE  = 
ORIGINATOR     = 

OBJECT_NAME    = 2026-027A
OBJECT_ID      = 2026-027A
CENTER_NAME    = EARTH
REF_FRAME      = TEME
TIME_SYSTEM    = UTC
MEAN_ELEMENT_THEORY = SGP/SGP4

EPOCH          = 2026-02-18T04:26:42.441216
MEAN_MOTION    = 15.17311223
ECCENTRICITY   = .000923
INCLINATION    = 97.4881
RA_OF_ASC_NODE = 178.4131
ARG_OF_PERICENTER = 267.4015
MEAN_ANOMALY   = 92.6162

EPHEMERIS_TYPE = 0
CLASSIFICATION_TYPE = U
NORAD_CAT_ID   = 67746
ELEMENT_SET_NO = 999
REV_AT_EPOCH   = 90
BSTAR          = .41085E-3
MEAN_MOTION_DOT = .8134E-4
MEAN_MOTION_DDOT = 0

CCSDS_OMM_VERS = 2.0
CREATION_DATE  = 
ORIGINATOR     = 

OBJECT_NAME    = 2026-027B
OBJECT_ID      = 2026-027B
CENTER_NAME    = EARTH
REF_FRAME      = TEME
TIME_SYSTEM    = UTC
MEAN_ELEMENT_THEORY = SGP/SGP4

EPOCH          = 2026-02-18T04:26:08.340864
MEAN_MOTION    = 15.17412716
ECCENTRICITY   = .0009391
INCLINATION    = 97.4875
RA_OF_ASC_NODE = 178.4131
ARG_OF_PERICENTER = 270.0419
MEAN_ANOMALY   = 89.9739

EPHEMERIS_TYPE = 0
CLASSIFICATION_TYPE = U
NORAD_CAT_ID   = 67747
ELEMENT_SET_NO = 999
REV_AT_EPOCH   = 90
BSTAR          = .41209E-3
MEAN_MOTION_DOT = .8183E-4
MEAN_MOTION_DDOT = 0

CCSDS_OMM_VERS = 2.0
CREATION_DATE  = 
ORIGINATOR     = 

OBJECT_NAME    = 2026-027C
OBJECT_ID      = 2026-027C
CENTER_NAME    = EARTH
REF_FRAME      = TEME
TIME_SYSTEM    = UTC
MEAN_ELEMENT_THEORY = SGP/SGP4

EPOCH          = 2026-02-18T04:25:21.601056
MEAN_MOTION    = 15.17535622
ECCENTRICITY   = .0009787
INCLINATION    = 97.4888
RA_OF_ASC_NODE = 178.4149
ARG_OF_PERICENTER = 273.2129
MEAN_ANOMALY   = 86.7984

EPHEMERIS_TYPE = 0
CLASSIFICATION_TYPE = U
NORAD_CAT_ID   = 67748
ELEMENT_SET_NO = 999
REV_AT_EPOCH   = 90
BSTAR          = .29322E-3
MEAN_MOTION_DOT = .5822E-4
MEAN_MOTION_DDOT = 0

CCSDS_OMM_VERS = 2.0
CREATION_DATE  = 
ORIGINATOR     = 

OBJECT_NAME    = 2026-027D
OBJECT_ID      = 2026-027D
CENTER_NAME    = EARTH
REF_FRAME      = TEME
TIME_SYSTEM    = UTC
MEAN_ELEMENT_THEORY = SGP/SGP4

EPOCH          = 2026-02-18T04:24:31.656672
MEAN_MOTION    = 15.17707726
ECCENTRICITY   = .0009641
INCLINATION    = 97.4883
RA_OF_ASC_NODE = 178.4153
ARG_OF_PERICENTER = 277.5808
MEAN_ANOMALY   = 82.4331

EPHEMERIS_TYPE = 0
CLASSIFICATION_TYPE = U
NORAD_CAT_ID   = 67749
ELEMENT_SET_NO = 999
REV_AT_EPOCH   = 85
BSTAR          = .4717E-3
MEAN_MOTION_DOT = .9459E-4
MEAN_MOTION_DDOT = 0

CCSDS_OMM_VERS = 2.0
CREATION_DATE  = 
ORIGINATOR     = 

OBJECT_NAME    = 2026-027E
OBJECT_ID      = 2026-027E
CENTER_NAME    = EARTH
REF_FRAME      = TEME
TIME_SYSTEM    = UTC
MEAN_ELEMENT_THEORY = SGP/SGP4

EPOCH          = 2026-02-18T04:24:27.044640
MEAN_MOTION    = 15.17715912
ECCENTRICITY   = .0008771
INCLINATION    = 97.4893
RA_OF_ASC_NODE = 178.4164
ARG_OF_PERICENTER = 279.5071
MEAN_ANOMALY   = 80.5171

EPHEMERIS_TYPE = 0
CLASSIFICATION_TYPE = U
NORAD_CAT_ID   = 67750
ELEMENT_SET_NO = 999
REV_AT_EPOCH   = 90
BSTAR          = .4118E-3
MEAN_MOTION_DOT = .8248E-4
MEAN_MOTION_DDOT = 0

CCSDS_OMM_VERS = 2.0
CREATION_DATE  = 
ORIGINATOR     = 

OBJECT_NAME    = 2026-027F
OBJECT_ID      = 2026-027F
CENTER_NAME    = EARTH
REF_FRAME      = TEME
TIME_SYSTEM    = UTC
MEAN_ELEMENT_THEORY = SGP/SGP4

EPOCH          = 2026-02-18T04:24:08.022816
MEAN_MOTION    = 15.17805528
ECCENTRICITY   = .0009928
INCLINATION    = 97.4894
RA_OF_ASC_NODE = 178.4170
ARG_OF_PERICENTER = 278.2086
MEAN_ANOMALY   = 81.8021

EPHEMERIS_TYPE = 0
CLASSIFICATION_TYPE = U
NORAD_CAT_ID   = 67751
ELEMENT_SET_NO = 999
REV_AT_EPOCH   = 90
BSTAR          = .65361E-3
MEAN_MOTION_DOT = .13177E-3
MEAN_MOTION_DDOT = 0

CCSDS_OMM_VERS = 2.0
CREATION_DATE  = 
ORIGINATOR     = 

OBJECT_NAME    = 2026-027G
OBJECT_ID      = 2026-027G
CENTER_NAME    = EARTH
REF_FRAME      = TEME
TIME_SYSTEM    = UTC
MEAN_ELEMENT_THEORY = SGP/SGP4

EPOCH          = 2026-02-18T04:23:59.064000
MEAN_MOTION    = 15.17802638
ECCENTRICITY   = .0009104
INCLINATION    = 97.4888
RA_OF_ASC_NODE = 178.4164
ARG_OF_PERICENTER = 281.5030
MEAN_ANOMALY   = 78.5182

EPHEMERIS_TYPE = 0
CLASSIFICATION_TYPE = U
NORAD_CAT_ID   = 67752
ELEMENT_SET_NO = 999
REV_AT_EPOCH   = 90
BSTAR          = .43811E-3
MEAN_MOTION_DOT = .8802E-4
MEAN_MOTION_DDOT = 0

CCSDS_OMM_VERS = 2.0
CREATION_DATE  = 
ORIGINATOR     = 

OBJECT_NAME    = 2026-027H
OBJECT_ID      = 2026-027H
CENTER_NAME    = EARTH
REF_FRAME      = TEME
TIME_SYSTEM    = UTC
MEAN_ELEMENT_THEORY = SGP/SGP4

EPOCH          = 2026-02-18T03:51:11.983104
MEAN_MOTION    = 15.59779256
ECCENTRICITY   = .0267543
INCLINATION    = 97.5142
RA_OF_ASC_NODE = 178.8042
ARG_OF_PERICENTER = 317.7265
MEAN_ANOMALY   = 40.3637

EPHEMERIS_TYPE = 0
CLASSIFICATION_TYPE = U
NORAD_CAT_ID   = 67753
ELEMENT_SET_NO = 999
REV_AT_EPOCH   = 92
BSTAR          = .66673E-3
MEAN_MOTION_DOT = .351189E-2
MEAN_MOTION_DDOT = .23088E-5

CCSDS_OMM_VERS = 2.0
CREATION_DATE  = 
ORIGINATOR     = 

OBJECT_NAME    = 2026-027J
OBJECT_ID      = 2026-027J
CENTER_NAME    = EARTH
REF_FRAME      = TEME
TIME_SYSTEM    = UTC
MEAN_ELEMENT_THEORY = SGP/SGP4

EPOCH          = 2026-02-18T03:38:06.004896
MEAN_MOTION    = 15.64680053
ECCENTRICITY   = .0248916
INCLINATION    = 97.5117
RA_OF_ASC_NODE = 178.8175
ARG_OF_PERICENTER = 317.2569
MEAN_ANOMALY   = 40.9562

EPHEMERIS_TYPE = 0
CLASSIFICATION_TYPE = U
NORAD_CAT_ID   = 67754
ELEMENT_SET_NO = 999
REV_AT_EPOCH   = 86
BSTAR          = .13117E-2
MEAN_MOTION_DOT = .743392E-2
MEAN_MOTION_DDOT = .23459E-5

